{
  "type": "FeatureCollection",
  "features": [
    {
      "type": "Feature",
      "properties": {
        "norad_id": 66655,
        "name": "2025-274F",
        "group": "last-30-days",
        "lat": -12.691112776772064,
        "lon": -84.43542815367618,
        "alt_km": 595.1744202421687,
        "timestamp": "2025-12-12T14:39:16.772392+00:00",
        "meta_object_name": "2025-274F",
        "meta_object_id": "2025-274F",
        "meta_epoch": "2025-12-10T14:24:20.623680",
        "meta_mean_motion": 14.91412977,
        "meta_eccentricity": 0.0004698,
        "meta_inclination": 97.7323,
        "meta_ra_of_asc_node": 271.8405,
        "meta_arg_of_pericenter": 22.2473,
        "meta_mean_anomaly": 337.8948,
        "meta_ephemeris_type": 0,
        "meta_classification_type": "U",
        "meta_norad_cat_id": 66655,
        "meta_element_set_no": 999,
        "meta_rev_at_epoch": 208,
        "meta_bstar": 1.9321e-05,
        "meta_mean_motion_dot": 1.38e-06,
        "meta_mean_motion_ddot": 0,
        "tle_line1": "1 66655U 25274F   25344.60023870  .00000138  00000+0  19321-4 0  9993",
        "tle_line2": "2 66655  97.7323 271.8405 0004698  22.2473 337.8948 14.91412977  2082"
      },
      "geometry": {
        "type": "Point",
        "coordinates": [
          -84.43542815367618,
          -12.691112776772064
        ]
      }
    },
    {
      "type": "Feature",
      "properties": {
        "norad_id": 66656,
        "name": "2025-274G",
        "group": "last-30-days",
        "lat": -7.94456859399795,
        "lon": -85.09807456044196,
        "alt_km": 595.5382703956402,
        "timestamp": "2025-12-12T14:39:16.772401+00:00",
        "meta_object_name": "2025-274G",
        "meta_object_id": "2025-274G",
        "meta_epoch": "2025-12-12T06:38:38.774688",
        "meta_mean_motion": 14.92269909,
        "meta_eccentricity": 0.00123697,
        "meta_inclination": 97.7384,
        "meta_ra_of_asc_node": 273.4867,
        "meta_arg_of_pericenter": 258.6649,
        "meta_mean_anomaly": 101.3181,
        "meta_ephemeris_type": 0,
        "meta_classification_type": "U",
        "meta_norad_cat_id": 66656,
        "meta_element_set_no": 999,
        "meta_rev_at_epoch": 233,
        "meta_bstar": 0.00052299282,
        "meta_mean_motion_dot": 5.29e-05,
        "meta_mean_motion_ddot": 0,
        "tle_line1": "1 66656U 25274G   25346.27683767  .00005290  00000+0  52299-3 0  9990",
        "tle_line2": "2 66656  97.7384 273.4867 0012369 258.6649 101.3181 14.92269909  2331"
      },
      "geometry": {
        "type": "Point",
        "coordinates": [
          -85.09807456044196,
          -7.94456859399795
        ]
      }
    },
    {
      "type": "Feature",
      "properties": {
        "norad_id": 66657,
        "name": "SPIRONE",
        "group": "last-30-days",
        "lat": 2.2002412579877495,
        "lon": -86.48093465711341,
        "alt_km": 592.4722218425068,
        "timestamp": "2025-12-12T14:39:16.772412+00:00",
        "meta_object_name": "SPIRONE",
        "meta_object_id": "2025-274H",
        "meta_epoch": "2025-12-12T06:35:57.474528",
        "meta_mean_motion": 14.92448984,
        "meta_eccentricity": 0.00107358,
        "meta_inclination": 97.7381,
        "meta_ra_of_asc_node": 273.4886,
        "meta_arg_of_pericenter": 277.7668,
        "meta_mean_anomaly": 82.2332,
        "meta_ephemeris_type": 0,
        "meta_classification_type": "U",
        "meta_norad_cat_id": 66657,
        "meta_element_set_no": 999,
        "meta_rev_at_epoch": 233,
        "meta_bstar": 0.0005122317,
        "meta_mean_motion_dot": 5.202e-05,
        "meta_mean_motion_ddot": 0,
        "tle_line1": "1 66657U 25274H   25346.27497077  .00005202  00000+0  51223-3 0  9997",
        "tle_line2": "2 66657  97.7381 273.4886 0010735 277.7668  82.2332 14.92448984  2335"
      },
      "geometry": {
        "type": "Point",
        "coordinates": [
          -86.48093465711341,
          2.2002412579877495
        ]
      }
    },
    {
      "type": "Feature",
      "properties": {
        "norad_id": 66658,
        "name": "2025-274J",
        "group": "last-30-days",
        "lat": 12.089506783948249,
        "lon": -87.84607718217036,
        "alt_km": 591.4709206980542,
        "timestamp": "2025-12-12T14:39:16.772421+00:00",
        "meta_object_name": "2025-274J",
        "meta_object_id": "2025-274J",
        "meta_epoch": "2025-12-12T06:33:20.285280",
        "meta_mean_motion": 14.92619719,
        "meta_eccentricity": 0.00113189,
        "meta_inclination": 97.7381,
        "meta_ra_of_asc_node": 273.4912,
        "meta_arg_of_pericenter": 280.6697,
        "meta_mean_anomaly": 79.3247,
        "meta_ephemeris_type": 0,
        "meta_classification_type": "U",
        "meta_norad_cat_id": 66658,
        "meta_element_set_no": 999,
        "meta_rev_at_epoch": 233,
        "meta_bstar": 0.00048276309,
        "meta_mean_motion_dot": 4.921e-05,
        "meta_mean_motion_ddot": 0,
        "tle_line1": "1 66658U 25274J   25346.27315145  .00004921  00000+0  48276-3 0  9994",
        "tle_line2": "2 66658  97.7381 273.4912 0011318 280.6697  79.3247 14.92619719  2337"
      },
      "geometry": {
        "type": "Point",
        "coordinates": [
          -87.84607718217036,
          12.089506783948249
        ]
      }
    },
    {
      "type": "Feature",
      "properties": {
        "norad_id": 66659,
        "name": "JACK K",
        "group": "last-30-days",
        "lat": 22.631725812137372,
        "lon": -89.42196693262787,
        "alt_km": 590.6180870499538,
        "timestamp": "2025-12-12T14:39:16.772430+00:00",
        "meta_object_name": "JACK K",
        "meta_object_id": "2025-274K",
        "meta_epoch": "2025-12-12T06:30:32.682240",
        "meta_mean_motion": 14.92804314,
        "meta_eccentricity": 0.0012066,
        "meta_inclination": 97.7382,
        "meta_ra_of_asc_node": 273.4942,
        "meta_arg_of_pericenter": 282.119,
        "meta_mean_anomaly": 77.8678,
        "meta_ephemeris_type": 0,
        "meta_classification_type": "U",
        "meta_norad_cat_id": 66659,
        "meta_element_set_no": 999,
        "meta_rev_at_epoch": 233,
        "meta_bstar": 0.00046069266,
        "meta_mean_motion_dot": 4.716e-05,
        "meta_mean_motion_ddot": 0,
        "tle_line1": "1 66659U 25274K   25346.27121160  .00004716  00000+0  46069-3 0  9997",
        "tle_line2": "2 66659  97.7382 273.4942 0012066 282.1190  77.8678 14.92804314  2336"
      },
      "geometry": {
        "type": "Point",
        "coordinates": [
          -89.42196693262787,
          22.631725812137372
        ]
      }
    },
    {
      "type": "Feature",
      "properties": {
        "norad_id": 66660,
        "name": "K-HERO",
        "group": "last-30-days",
        "lat": 31.13025646698288,
        "lon": -90.87882455334804,
        "alt_km": 590.0753135982295,
        "timestamp": "2025-12-12T14:39:16.772440+00:00",
        "meta_object_name": "K-HERO",
        "meta_object_id": "2025-274L",
        "meta_epoch": "2025-12-12T06:28:17.399712",
        "meta_mean_motion": 14.92954618,
        "meta_eccentricity": 0.00126905,
        "meta_inclination": 97.7386,
        "meta_ra_of_asc_node": 273.4968,
        "meta_arg_of_pericenter": 282.622,
        "meta_mean_anomaly": 77.358,
        "meta_ephemeris_type": 0,
        "meta_classification_type": "U",
        "meta_norad_cat_id": 66660,
        "meta_element_set_no": 999,
        "meta_rev_at_epoch": 233,
        "meta_bstar": 0.00043164249,
        "meta_mean_motion_dot": 4.432e-05,
        "meta_mean_motion_ddot": 0,
        "tle_line1": "1 66660U 25274L   25346.26964583  .00004432  00000+0  43164-3 0  9990",
        "tle_line2": "2 66660  97.7386 273.4968 0012690 282.6220  77.3580 14.92954618  2332"
      },
      "geometry": {
        "type": "Point",
        "coordinates": [
          -90.87882455334804,
          31.13025646698288
        ]
      }
    },
    {
      "type": "Feature",
      "properties": {
        "norad_id": 66661,
        "name": "SNUGLITE-III",
        "group": "last-30-days",
        "lat": 39.557482044266976,
        "lon": -92.61384934064125,
        "alt_km": 589.5861323842246,
        "timestamp": "2025-12-12T14:39:16.772449+00:00",
        "meta_object_name": "SNUGLITE-III",
        "meta_object_id": "2025-274M",
        "meta_epoch": "2025-12-12T06:26:02.758272",
        "meta_mean_motion": 14.93093703,
        "meta_eccentricity": 0.001339,
        "meta_inclination": 97.7383,
        "meta_ra_of_asc_node": 273.4984,
        "meta_arg_of_pericenter": 283.716,
        "meta_mean_anomaly": 76.2569,
        "meta_ephemeris_type": 0,
        "meta_classification_type": "U",
        "meta_norad_cat_id": 66661,
        "meta_element_set_no": 999,
        "meta_rev_at_epoch": 233,
        "meta_bstar": 0.00039614497,
        "meta_mean_motion_dot": 4.078e-05,
        "meta_mean_motion_ddot": 0,
        "tle_line1": "1 66661U 25274M   25346.26808748  .00004078  00000+0  39614-3 0  9992",
        "tle_line2": "2 66661  97.7383 273.4984 0013390 283.7160  76.2569 14.93093703  2336"
      },
      "geometry": {
        "type": "Point",
        "coordinates": [
          -92.61384934064125,
          39.557482044266976
        ]
      }
    }
  ]
}